GLOBALSTAR M075         
1 37192U 10054E   25285.45944516 -.00000076  00000+0  15263-3 0  9995
2 37192  51.9937 184.4691 0000753  70.2264 100.7536 12.62268691690658
GLOBALSTAR M073         
1 37193U 10054F   25285.59805031 -.00000113  00000+0 -51647-4 0  9999
2 37193  52.0041  97.9546 0000820 107.7331 332.5594 12.62263520692668
GLOBALSTAR M083         
1 37739U 11033A   25285.59621828 -.00000096  00000+0  46025-4 0  9996
2 37739  51.9872  46.5272 0000824 114.0158 259.4363 12.62276742661681
GLOBALSTAR M088         
1 37740U 11033B   25285.33252881 -.00000079  00000+0  13555-3 0  9991
2 37740  52.0222 313.1629 0000424  79.9652 293.2984 12.62268696657192
GLOBALSTAR M091         
1 37741U 11033C   25285.26635228 -.00000085  00000+0  10252-3 0  9992
2 37741  51.9991 276.6939 0000561  81.5874 291.6145 12.62260442657976
GLOBALSTAR M085         
1 37742U 11033D   25285.60475687 -.00000076  00000+0  15332-3 0  9996
2 37742  52.0117 226.7386 0000764  79.7782  91.7527 12.62265501658529
GLOBALSTAR M081         
1 37743U 11033E   25285.63111431 -.00000083  00000+0  11838-3 0  9999
2 37743  51.9950 229.3766 0000511  81.8920  89.0643 12.62269112658679
GLOBALSTAR M089         
1 37744U 11033F   25285.43332225 -.00000081  00000+0  12788-3 0  9997
2 37744  51.9923 184.1851 0000595  53.1250 119.3163 12.62267811659492
